[{"OBJECT_NAME":"STARLINK-4125","OBJECT_ID":"2022-086C","EPOCH":"2026-03-09T15:14:33.930816","MEAN_MOTION":15.08842186,"ECCENTRICITY":0.0001104,"INCLINATION":53.2174,"RA_OF_ASC_NODE":204.4453,"ARG_OF_PERICENTER":81.4624,"MEAN_ANOMALY":278.6494,"EPHEMERIS_TYPE":0,"CLASSIFICATION_TYPE":"U","NORAD_CAT_ID":53244,"ELEMENT_SET_NO":999,"REV_AT_EPOCH":20123,"BSTAR":2.4809e-6,"MEAN_MOTION_DOT":-2.48e-6,"MEAN_MOTION_DDOT":0},{"OBJECT_NAME":"OBJECT R","OBJECT_ID":"2023-091R","EPOCH":"2026-03-09T23:14:08.723328","MEAN_MOTION":15.13803604,"ECCENTRICITY":0.00168604,"INCLINATION":97.5196,"RA_OF_ASC_NODE":124.2169,"ARG_OF_PERICENTER":118.5914,"MEAN_ANOMALY":241.7016,"EPHEMERIS_TYPE":0,"CLASSIFICATION_TYPE":"U","NORAD_CAT_ID":57181,"ELEMENT_SET_NO":999,"REV_AT_EPOCH":14867,"BSTAR":0.00029975355,"MEAN_MOTION_DOT":5.364e-5,"MEAN_MOTION_DDOT":0}]
